NORAD_CAT_ID,OBJECT_NAME,OBJECT_TYPE,EPOCH,MEAN_MOTION,ECCENTRICITY,INCLINATION,RA_OF_ASC_NODE,ARG_OF_PERICENTER,MEAN_ANOMALY,BSTAR,MEAN_MOTION_DOT,MEAN_MOTION_DDOT,TLE_LINE0,TLE_LINE1,TLE_LINE2,SEMIMAJOR_AXIS,PERIOD,APOGEE,PERIGEE,DECAYED
53527.0,STARLINK-4511,PAYLOAD,2023-01-25 15:29:18,15.08841585,9.36e-05,53.218,147.4839,83.655,276.4549,3.5875e-05,2.83e-06,0.0,0 STARLINK-4511,1 53527U 22101A   23025.64535583  .00000283  00000-0  35875-4 0  9994,2 53527  53.2180 147.4839 0000936  83.6550 276.4549 15.08841585 24204,6917.876,95.437,540.388,539.0930000000001,0.0
53527.0,STARLINK-4511,PAYLOAD,2023-01-26 01:01:37,15.08848173,0.0001175,53.2179,145.7,86.7916,273.3211,3.6183e-05,2.88e-06,0.0,0 STARLINK-4511,1 53527U 22101A   23026.04279147  .00000288  00000-0  36183-4 0  9998,2 53527  53.2179 145.7000 0001175  86.7916 273.3211 15.08848173 24267,6917.855,95.437,540.533,538.908,0.0
53527.0,STARLINK-4511,PAYLOAD,2023-01-26 13:44:42,15.08845421,0.0001184,53.2185,143.3216,86.8155,273.2973,0.00013259,1.823e-05,0.0,0 STARLINK-4511,1 53527U 22101A   23026.57271275  .00001823  00000-0  13259-3 0  9994,2 53527  53.2185 143.3216 0001184  86.8155 273.2973 15.08845421 24349,6917.8640000000005,95.437,540.548,538.91,0.0
53527.0,STARLINK-4511,PAYLOAD,2023-01-27 00:52:24,15.08838866,8.590000000000001e-05,53.2175,141.2399,92.3237,267.7853,0.00013586,1.875e-05,0.0,0 STARLINK-4511,1 53527U 22101A   23027.03639552  .00001875  00000-0  13586-3 0  9992,2 53527  53.2175 141.2399 0000859  92.3237 267.7853 15.08838866 24416,6917.884,95.438,540.3430000000001,539.155,0.0
53527.0,STARLINK-4511,PAYLOAD,2023-01-27 13:35:29,15.08839752,0.0001425,53.2185,138.8613,90.3382,269.7774,7.7278e-05,9.42e-06,0.0,0 STARLINK-4511,1 53527U 22101A   23027.56631827  .00000942  00000-0  77278-4 0  9990,2 53527  53.2185 138.8613 0001425  90.3382 269.7774 15.08839752 24494,6917.880999999999,95.438,540.732,538.76,0.0
53527.0,STARLINK-4511,PAYLOAD,2023-01-28 11:50:53,15.08840079,0.000138,53.2173,134.699,86.987,273.128,5.9854e-05,6.65e-06,0.0,0 STARLINK-4511,1 53527U 22101A   23028.49367969  .00000665  00000-0  59854-4 0  9998,2 53527  53.2173 134.6990 0001380  86.9870 273.1280 15.08840079 24637,6917.88,95.438,540.7,538.79,0.0
53527.0,STARLINK-4511,PAYLOAD,2023-01-28 13:26:16,15.08842276,0.0001375,53.2174,134.4009,84.7199,275.395,3.2723e-05,2.33e-06,0.0,0 STARLINK-4511,1 53527U 22101A   23028.55991865  .00000233  00000-0  32723-4 0  9990,2 53527  53.2174 134.4009 0001375  84.7199 275.3950 15.08842276 24641,6917.873,95.437,540.69,538.787,0.0
53527.0,STARLINK-4511,PAYLOAD,2023-01-28 18:12:25,15.08849251,0.0001216,53.2165,133.5058,105.746,254.3666,0.0001315,1.806e-05,0.0,0 STARLINK-4511,1 53527U 22101A   23028.75863316  .00001806  00000-0  13150-3 0  9990,2 53527  53.2165 133.5058 0001216 105.7460 254.3666 15.08849251 24678,6917.852,95.437,540.558,538.876,0.0
53527.0,STARLINK-4511,PAYLOAD,2023-01-29 10:06:18,15.08834548,0.0001136,53.2176,130.5374,76.7881,283.3238,7.4759e-05,9.02e-06,0.0,0 STARLINK-4511,1 53527U 22101A   23029.42104384  .00000902  00000-0  74759-4 0  9997,2 53527  53.2176 130.5374 0001136  76.7881 283.3238 15.08834548 24774,6917.897,95.438,540.548,538.976,0.0
53527.0,STARLINK-4511,PAYLOAD,2023-01-29 18:03:13,15.0883783,0.0001235,53.2162,129.0478,89.4443,270.6691,6.3967e-05,7.3e-06,0.0,0 STARLINK-4511,1 53527U 22101A   23029.75224178  .00000730  00000-0  63967-4 0  9995,2 53527  53.2162 129.0478 0001235  89.4443 270.6691 15.08837830 24827,6917.887,95.438,540.606,538.898,0.0
53527.0,STARLINK-4511,PAYLOAD,2023-01-30 09:57:06,15.08819922,0.0001328,53.2169,126.0733,105.1422,254.9717,-0.00010517,-1.96e-05,0.0,0 STARLINK-4511,1 53527U 22101A   23030.41466008 -.00001960  00000-0 -10517-3 0  9990,2 53527  53.2169 126.0733 0001328 105.1422 254.9717 15.08819922 24928,6917.942,95.439,540.725,538.888,0.0
53527.0,STARLINK-4511,PAYLOAD,2023-01-30 11:32:29,15.08820811,0.0001279,53.2167,125.7763,101.0158,259.0978,-8.721e-05,-1.675e-05,0.0,0 STARLINK-4511,1 53527U 22101A   23030.48089923 -.00001675  00000-0 -87210-4 0  9992,2 53527  53.2167 125.7763 0001279 101.0158 259.0978 15.08820811 24936,6917.939,95.439,540.689,538.919,0.0
53527.0,STARLINK-4511,PAYLOAD,2023-01-30 14:43:15,15.08826278,0.0001303,53.2181,125.1814,106.9242,253.1893,-8.0329e-05,-1.566e-05,0.0,0 STARLINK-4511,1 53527U 22101A   23030.61337660 -.00001566  00000-0 -80329-4 0  9994,2 53527  53.2181 125.1814 0001303 106.9242 253.1893 15.08826278 24955,6917.922,95.438,540.689,538.886,0.0
53527.0,STARLINK-4511,PAYLOAD,2023-01-31 11:23:16,15.0884954,0.000108,53.2171,121.317,93.3468,266.7648,0.00049994,7.68e-05,0.0,0 STARLINK-4511,1 53527U 22101A   23031.47449492  .00007680  00000-0  49994-3 0  9999,2 53527  53.2171 121.3170 0001080  93.3468 266.7648 15.08849540 25088,6917.851,95.437,540.463,538.969,0.0
53527.0,STARLINK-4511,PAYLOAD,2023-01-31 22:30:58,15.0886012,0.0001228,53.2188,119.2338,90.1068,270.0065,0.0006265,9.702e-05,0.0,0 STARLINK-4511,1 53527U 22101A   23031.93817255  .00009702  00000-0  62650-3 0  9997,2 53527  53.2188 119.2338 0001228  90.1068 270.0065 15.08860120 25159,6917.819,95.436,540.533,538.834,0.0
53527.0,STARLINK-4511,PAYLOAD,2023-02-01 11:14:02,15.08867274,0.0001212,53.2171,116.8561,106.3199,253.7926,0.00050964,7.838e-05,0.0,0 STARLINK-4511,1 53527U 22101A   23032.46808308  .00007838  00000-0  50964-3 0  9998,2 53527  53.2171 116.8561 0001212 106.3199 253.7926 15.08867274 25230,6917.797,95.436,540.5,538.824,0.0
53527.0,STARLINK-4511,PAYLOAD,2023-02-01 22:21:44,15.08862313,0.0001362,53.2168,114.7757,86.6792,273.4356,0.0002312,3.396e-05,0.0,0 STARLINK-4511,1 53527U 22101A   23032.93175961  .00003396  00000-0  23120-3 0  9991,2 53527  53.2168 114.7757 0001362  86.6792 273.4356 15.08862313 25308,6917.812,95.436,540.619,538.735,0.0
53527.0,STARLINK-4511,PAYLOAD,2023-02-02 12:40:12,15.08848902,0.0001231,53.2181,112.0993,94.0728,266.0405,-3.4e-05,-8.29e-06,0.0,0 STARLINK-4511,1 53527U 22101A   23033.52792075 -.00000829  00000-0 -34000-4 0  9998,2 53527  53.2181 112.0993 0001231  94.0728 266.0405 15.08848902 25393,6917.853,95.437,540.57,538.867,0.0
53527.0,STARLINK-4511,PAYLOAD,2023-02-03 04:34:04,15.08840551,0.0001456,53.2188,109.1269,90.8991,269.2168,-3.9373e-05,-9.15e-06,0.0,0 STARLINK-4511,1 53527U 22101A   23034.19032456 -.00000915  00000-0 -39373-4 0  9996,2 53527  53.2188 109.1269 0001456  90.8991 269.2168 15.08840551 25492,6917.879,95.438,540.751,538.736,0.0
53527.0,STARLINK-4511,PAYLOAD,2023-02-03 09:20:13,15.08840377,0.0001532,53.2195,108.2354,91.6273,268.4895,-2.5214e-05,-6.89e-06,0.0,0 STARLINK-4511,1 53527U 22101A   23034.38904515 -.00000689  00000-0 -25214-4 0  9998,2 53527  53.2195 108.2354 0001532  91.6273 268.4895 15.08840377 25520,6917.879,95.438,540.804,538.684,0.0
53527.0,STARLINK-4511,PAYLOAD,2023-02-04 10:46:23,15.08845376,0.0001465,53.2179,103.4765,90.2362,269.8798,0.00020487,2.975e-05,0.0,0 STARLINK-4511,1 53527U 22101A   23035.44888590  .00002975  00000-0  20487-3 0  9994,2 53527  53.2179 103.4765 0001465  90.2362 269.8798 15.08845376 25682,6917.864,95.437,540.742,538.715,0.0
53527.0,STARLINK-4511,PAYLOAD,2023-02-04 13:57:09,15.08847287,0.0001325,53.2163,102.881,86.938,273.1763,0.00024438,3.604e-05,0.0,0 STARLINK-4511,1 53527U 22101A   23035.58136454  .00003604  00000-0  24438-3 0  9994,2 53527  53.2163 102.8810 0001325  86.9380 273.1763 15.08847287 25702,6917.858,95.437,540.64,538.806,0.0
53527.0,STARLINK-4511,PAYLOAD,2023-02-04 21:54:05,15.08843325,0.0001424,53.2169,101.396,78.5071,281.6081,0.00021015,3.058e-05,0.0,0 STARLINK-4511,1 53527U 22101A   23035.91256735  .00003058  00000-0  21015-3 0  9997,2 53527  53.2169 101.3960 0001424  78.5071 281.6081 15.08843325 25753,6917.87,95.437,540.72,538.75,0.0
53527.0,STARLINK-4511,PAYLOAD,2023-02-05 04:15:38,15.08838965,0.0001512,53.2159,100.2048,91.9505,268.166,0.00014766,2.063e-05,0.0,0 STARLINK-4511,1 53527U 22101A   23036.17752985  .00002063  00000-0  14766-3 0  9994,2 53527  53.2159 100.2048 0001512  91.9505 268.1660 15.08838965 25797,6917.884,95.438,540.795,538.703,0.0
53527.0,STARLINK-4511,PAYLOAD,2023-02-05 13:47:57,15.08843118,0.0001388,53.2166,98.4206,94.4132,265.7019,0.00015468,2.175e-05,0.0,0 STARLINK-4511,1 53527U 22101A   23036.57496805  .00002175  00000-0  15468-3 0  9998,2 53527  53.2166  98.4206 0001388  94.4132 265.7019 15.08843118 25858,6917.871,95.437,540.696,538.776,0.0
53527.0,STARLINK-4511,PAYLOAD,2023-02-06 10:27:57,15.08851889,0.0001327,53.2165,94.5539,101.8742,258.2399,0.00019866,2.876e-05,0.0,0 STARLINK-4511,1 53527U 22101A   23037.43608316  .00002876  00000-0  19866-3 0  9990,2 53527  53.2165  94.5539 0001327 101.8742 258.2399 15.08851889 25982,6917.844,95.437,540.627,538.791,0.0
53527.0,STARLINK-4511,PAYLOAD,2023-02-06 13:38:43,15.08853186,0.0001337,53.2165,93.9589,106.6346,253.4793,0.00030423,4.559e-05,0.0,0 STARLINK-4511,1 53527U 22101A   23037.56856268  .00004559  00000-0  30423-3 0  9997,2 53527  53.2165  93.9589 0001337 106.6346 253.4793 15.08853186 26005,6917.84,95.437,540.63,538.78,0.0
53527.0,STARLINK-4511,PAYLOAD,2023-02-07 02:21:49,15.08847842,0.0001516,53.2167,91.5811,82.5969,277.5196,0.00023798,3.502e-05,0.0,0 STARLINK-4511,1 53527U 22101A   23038.09848544  .00003502  00000-0  23798-3 0  9998,2 53527  53.2167  91.5811 0001516  82.5969 277.5196 15.08847842 26085,6917.856,95.437,540.77,538.673,0.0
53527.0,STARLINK-4511,PAYLOAD,2023-02-07 13:29:30,15.0885773,0.0001346,53.2176,89.4992,79.4282,280.6862,0.00033506,5.051e-05,0.0,0 STARLINK-4511,1 53527U 22101A   23038.56215845  .00005051  00000-0  33506-3 0  9991,2 53527  53.2176  89.4992 0001346  79.4282 280.6862 15.08857730 26155,6917.826,95.436,540.622,538.76,0.0
53527.0,STARLINK-4511,PAYLOAD,2023-02-08 03:47:59,15.08838295,0.0001223,53.2178,86.8205,114.3048,245.8072,-9.1578e-05,-1.745e-05,0.0,0 STARLINK-4511,1 53527U 22101A   23039.15832330 -.00001745  00000-0 -91578-4 0  9993,2 53527  53.2178  86.8205 0001223 114.3048 245.8072 15.08838295 26249,6917.886,95.438,540.597,538.905,0.0
